0 DELTA 1 DEB
1 07135U 73086CZ  13283.05004023  .00000172  00000-0  12156-2 0  6120
2 07135 102.2512 324.3259 0141187 293.4849 065.1441 12.60842377829527
0 DELTA 1 DEB
1 07135U 73086CZ  13286.69991386  .00000176  00000-0  12355-2 0  6147
2 07135 102.2508 328.1441 0141846 286.4153 072.1371 12.60842526829985
0 DELTA 1 DEB
1 07135U 73086CZ  13288.04878151  .00000166  00000-0  11842-2 0  6152
2 07135 102.2506 329.5551 0142081 283.8242 074.7059 12.60843333830151
0 DELTA 1 DEB
1 07135U 73086CZ  13289.08026815  .00000175  00000-0  12322-2 0  6164
2 07135 102.2504 330.6341 0142239 281.8487 076.6666 12.60844618830289
0 DELTA 1 DEB
1 07135U 73086CZ  13290.66717032  .00000172  00000-0  12130-2 0  6173
2 07135 102.2503 332.2937 0142488 278.8048 079.6915 12.60845677830480
0 DELTA 1 DEB
1 07135U 73086CZ  13291.93669138  .00000194  00000-0  13371-2 0  6180
2 07135 102.2503 333.6216 0142707 276.3811 082.1030 12.60846728830643
0 DELTA 1 DEB
1 07135U 73086CZ  13293.04752201  .00000186  00000-0  12926-2 0  6195
2 07135 102.2504 334.7834 0142909 274.2631 084.2125 12.60847547830786
0 DELTA 1 DEB
1 07135U 73086CZ  13294.07900739  .00000161  00000-0  11568-2 0  6206
2 07135 102.2505 335.8623 0143060 272.2999 086.1702 12.60848383830915
0 DELTA 1 DEB
1 07135U 73086CZ  13295.11049267  .00000237  00000-0  15691-2 0  6218
2 07135 102.2505 336.9413 0143214 270.3401 088.1265 12.60849203831045
